*******************************************************************************
 Revised: Jan 23, 2020            Calypso  / (Saturn)                       614
                          http://ssd.jpl.nasa.gov/?sat_phys_par
                            http://ssd.jpl.nasa.gov/?sat_elem

 SATELLITE PHYSICAL PROPERTIES:
  Radius (km)            = 15 x 8 x 8       Density (g cm^-3)   =  1.0
  Mass (10^22 g)         = 0.0003597        Geometric Albedo    =  0.7 
  GM (km^3/s^2)          = 0.00024          V(1,0)              = +9.4 

 SATELLITE ORBITAL DATA (mean values with respect to local Laplace plane):
  Semi-major axis, a (km) = 294.710(10^3)   Orbital period      = 1.887802 d
  Eccentricity, e         = 0.0005          Rotational period   = 
  Inclination, i  (deg)   = 1.499   

 NOTE: The IAU rotational spin-pole model (defining latitude and logitude) is 
       valid only near the time of the 1981 Voyager 1 & 2 flybys; an updated
       Cassini-based coordinate grid model is not yet published by the IAU.

      Trajectory is valid only for the interval spanned by Cassini data.
*******************************************************************************
 
 
*******************************************************************************
Ephemeris / WWW_USER Fri Jun 19 18:28:35 2020 Pasadena, USA      / Horizons
*******************************************************************************
Target body name: Calypso (614)                   {source: sat427l_merged_DE438}
Center body name: Solar System Barycenter (0)     {source: DE431mx}
Center-site name: BODY CENTER
*******************************************************************************
Start time      : A.D. 1969-Jun-28 00:00:00.0000 TDB
Stop  time      : A.D. 2071-May-04 00:00:00.0000 TDB
Step-size       : 7200 minutes
*******************************************************************************
Center geodetic : 0.00000000,0.00000000,0.0000000 {E-lon(deg),Lat(deg),Alt(km)}
Center cylindric: 0.00000000,0.00000000,0.0000000 {E-lon(deg),Dxy(km),Dz(km)}
Center radii    : (undefined)                                                  
Output units    : AU-D
Output type     : GEOMETRIC cartesian states
Output format   : 2 (position and velocity)
Reference frame : Ecliptic of J2000.0
*******************************************************************************
            JDTDB,            Calendar Date (TDB),        delta-T,                      X,                      Y,                      Z,                     VX,                     VY,                     VZ,
******************************************************************************************************************************************************************************************************************
$$SOE
2456735.500000000, A.D. 2014-Mar-19 00:00:00.0000,      67.185582, -6.593081378549372E+00, -7.370189017092094E+00,  3.896225854826494E-01, -2.516081906263198E-03, -2.175880800394486E-03, -1.927764128896186E-04,
2456740.500000000, A.D. 2014-Mar-24 00:00:00.0000,      67.185613, -6.572926978975590E+00, -7.391868845473172E+00,  3.907454915682333E-01,  8.800235649937850E-03, -2.139796691377909E-04, -2.598731895966383E-03,
2456745.500000000, A.D. 2014-Mar-29 00:00:00.0000,      67.185634, -6.556813178348220E+00, -7.409108557318895E+00,  3.899438466851743E-01,  4.349750480626888E-03, -9.465185428602351E-03,  3.009620607737682E-03,
2456750.500000000, A.D. 2014-Apr-03 00:00:00.0000,      67.185644, -6.534412841238064E+00, -7.426202760419016E+00,  3.883515146295805E-01, -1.617665591356007E-03, -3.335541306789345E-04, -1.280225072228746E-03,
2456755.500000000, A.D. 2014-Apr-08 00:00:00.0000,      67.185640, -6.515324399660408E+00, -7.447731394926529E+00,  3.896157321805220E-01,  9.988709504023439E-03, -1.954398969647638E-03, -1.768077238695904E-03,
2456760.500000000, A.D. 2014-Apr-13 00:00:00.0000,      67.185623, -6.498406552873631E+00, -7.463928787318535E+00,  3.882546141907752E-01,  2.127993049032065E-03, -9.119169252956151E-03,  3.098975018323711E-03,
2456765.500000000, A.D. 2014-Apr-18 00:00:00.0000,      67.185594, -6.475424008867679E+00, -7.481877002814224E+00,  3.871604227961378E-01, -5.674527229988713E-05,  1.101297526376020E-03, -2.221783839452209E-03,
2456770.500000000, A.D. 2014-Apr-23 00:00:00.0000,      67.185553, -6.457357136621552E+00, -7.502883748332449E+00,  3.883608077223976E-01,  1.044010057087588E-02, -3.902786303717638E-03, -7.413601086170938E-04,
2456775.500000000, A.D. 2014-Apr-28 00:00:00.0000,      67.185503, -6.439327234252356E+00, -7.518305155337949E+00,  3.865498567744305E-01,  1.207793688005423E-04, -8.116389777159814E-03,  2.808907901336756E-03,
2456780.500000000, A.D. 2014-May-03 00:00:00.0000,      67.185443, -6.416178766090701E+00, -7.537155422864806E+00,  3.860274530277133E-01,  1.980707104803670E-03,  1.959248834639844E-03, -2.905573158020782E-03,
2456785.500000000, A.D. 2014-May-08 00:00:00.0000,      67.185371, -6.398949910568326E+00, -7.557313164440369E+00,  3.869668828061855E-01,  1.010875671403201E-02, -5.820608202274330E-03,  3.580707979461052E-04,
2456790.500000000, A.D. 2014-May-13 00:00:00.0000,      67.185288, -6.379617311812918E+00, -7.572297970419346E+00,  3.848680733970590E-01, -1.425009916014720E-03, -6.574843556002645E-03,  2.175410563934051E-03,
2456795.500000000, A.D. 2014-May-18 00:00:00.0000,      67.185195, -6.356718872991141E+00, -7.591969151871027E+00,  3.849215897948488E-01,  4.249717816908320E-03,  2.143947467032447E-03, -3.252521608568364E-03,
2456800.500000000, A.D. 2014-May-23 00:00:00.0000,      67.185095, -6.340025385898394E+00, -7.611033471992797E+00,  3.854340924385432E-01,  9.042251515484033E-03, -7.471850566516176E-03,  1.398053540269189E-03,
2456805.500000000, A.D. 2014-May-28 00:00:00.0000,      67.184989, -6.319338833870987E+00, -7.625950367388083E+00,  3.832406951618398E-01, -2.324679059362637E-03, -4.676050806701281E-03,  1.275339382935724E-03,
2456810.500000000, A.D. 2014-Jun-02 00:00:00.0000,      67.184876, -6.297058188550614E+00, -7.646241602363139E+00,  3.838045864870990E-01,  6.478739902594569E-03,  1.641018146121559E-03, -3.224465497707552E-03,
2456815.500000000, A.D. 2014-Jun-07 00:00:00.0000,      67.184756, -6.280519105127283E+00, -7.664080232092742E+00,  3.837756245072391E-01,  7.373842667369779E-03, -8.658188652809326E-03,  2.257243021267626E-03,
2456820.500000000, A.D. 2014-Jun-12 00:00:00.0000,      67.184629, -6.258572336888774E+00, -7.679284896864491E+00,  3.816902143250970E-01, -2.469311643551330E-03, -2.647617230259283E-03,  2.185261482579394E-04,
2456825.500000000, A.D. 2014-Jun-17 00:00:00.0000,      67.184497, -6.237181794151814E+00, -7.699901443989739E+00,  3.826378826280450E-01,  8.406162425498808E-03,  5.183210923894636E-04, -2.828349198345714E-03,
2456830.500000000, A.D. 2014-Jun-22 00:00:00.0000,      67.184363, -6.220382602612125E+00, -7.716507821490553E+00,  3.820164925824953E-01,  5.310589511722598E-03, -9.236708753135149E-03,  2.835758651990094E-03,
2456835.500000000, A.D. 2014-Jun-27 00:00:00.0000,      67.184228, -6.197401740917561E+00, -7.732297794028232E+00,  3.802254200507056E-01, -1.841924975613783E-03, -7.262982024086094E-04, -8.701940640417928E-04,
2456840.500000000, A.D. 2014-Jul-02 00:00:00.0000,      67.184091, -6.177050472088546E+00, -7.752887579232763E+00,  3.813856897342626E-01,  9.810312556118873E-03, -1.081277661196685E-03, -2.115600914870262E-03,
2456845.500000000, A.D. 2014-Jul-07 00:00:00.0000,      67.183953, -6.159594225618017E+00, -7.768381194018332E+00,  3.801903084980464E-01,  3.101623555082226E-03, -9.136727531325830E-03,  3.067609848464195E-03,
2456850.500000000, A.D. 2014-Jul-12 00:00:00.0000,      67.183814, -6.135908680785885E+00, -7.784962703087350E+00,  3.788427785876291E-01, -5.207301671044857E-04,  8.641840592258657E-04, -1.862396375479223E-03,
2456855.500000000, A.D. 2014-Jul-17 00:00:00.0000,      67.183676, -6.116603762448016E+00, -7.805158103603366E+00,  3.800200508448031E-01,  1.053225761583066E-02, -2.960955501347847E-03, -1.173341537755189E-03,
2456860.500000000, A.D. 2014-Jul-22 00:00:00.0000,      67.183541, -6.098157548917736E+00, -7.819766938072580E+00,  3.783342766426656E-01,  1.009410117379390E-03, -8.371091137024984E-03,  2.929870782689032E-03,
2456865.500000000, A.D. 2014-Jul-27 00:00:00.0000,      67.183411, -6.074161758045673E+00, -7.837230718473619E+00,  3.775252362509207E-01,  1.336326791809133E-03,  1.941716455814399E-03, -2.642936745588867E-03,
2456870.500000000, A.D. 2014-Aug-01 00:00:00.0000,      67.183286, -6.055772123950976E+00, -7.856693315263869E+00,  3.785237857634897E-01,  1.049845996131779E-02, -4.896318126769275E-03, -1.128731306962609E-04,
2456875.500000000, A.D. 2014-Aug-06 00:00:00.0000,      67.183164, -6.036104686061783E+00, -7.870727995730342E+00,  3.764868118445925E-01, -7.157259895376083E-04, -7.029788333796400E-03,  2.441974978249632E-03,
2456880.500000000, A.D. 2014-Aug-11 00:00:00.0000,      67.183047, -6.012208360587994E+00, -7.889039485228040E+00,  3.762461863256887E-01,  3.510813721463008E-03,  2.388989431637176E-03, -3.124464867815896E-03,
2456885.500000000, A.D. 2014-Aug-16 00:00:00.0000,      67.182936, -5.994480170072935E+00, -7.907497564503295E+00,  3.768918058366876E-01,  9.723369935018256E-03, -6.655619149372492E-03,  9.408130669913240E-04,
2456890.500000000, A.D. 2014-Aug-21 00:00:00.0000,      67.182835, -5.973489167724420E+00, -7.921311266102938E+00,  3.746801614054414E-01, -1.874545066198876E-03, -5.267005111361802E-03,  1.663180957491888E-03,
2456895.500000000, A.D. 2014-Aug-26 00:00:00.0000,      67.182744, -5.950072113792162E+00, -7.940317096229138E+00,  3.749713061820564E-01,  5.748816770341829E-03,  2.164191264669093E-03, -3.255693481893055E-03,
